CZ-2D R/B               
1 28738U 05024B   26177.33359557  .00067394  00000+0  54683-3 0  9999
2 28738  97.3478 197.2241 0001537  29.8867 330.2483 15.70539221156774
ALOS (DAICHI)           
1 28931U 06002A   26177.61966794  .00000982  00000+0  17177-3 0  9996
2 28931  98.1327 133.1578 0001119  60.1823 299.9494 14.70067551 89486
H-2A R/B                
1 28932U 06002B   26177.67776650  .00007207  00000+0  34532-3 0  9994
2 28932  98.2565 334.3664 0049816 229.2996 130.3902 15.18180112110960
RESURS-DK 1             
1 29228U 06021A   26177.68632978  .00002228  00000+0  13107-3 0  9992
2 29228  69.9338 314.9640 0006756 287.2265  72.8161 15.13253700104014
CZ-4B R/B               
1 29507U 06046C   26177.68029917  .00004222  00000+0  20950-3 0  9992
2 29507  97.5451 222.2578 0031090 248.0217 111.7712 15.17847702 76578
CZ-2C R/B               
1 31114U 07010B   26177.71135525  .00000053  00000+0  43451-4 0  9998
2 31114  98.4107 285.5968 0058446 338.3650  21.5059 14.20278049995191
COSMO-SKYMED 1          
1 31598U 07023A   26177.62575134  .00003051  00000+0  26931-3 0  9996
2 31598  97.8860   9.5611 0001812  89.4601 270.6828 14.97149225 31201
COSMOS 2428             
1 31792U 07029A   26177.70114535 -.00000014  00000+0  17980-4 0  9993
2 31792  70.9354 334.5011 0007129 116.8045 243.3806 14.12927873979491
SL-16 R/B               
1 31793U 07029B   26177.74449213 -.00000215  00000+0 -86402-4 0  9991
2 31793  70.9771 303.1376 0002443 263.4769 258.9094 14.14854842980790
KORONAS-FOTON           
1 33504U 09003A   26177.65902551  .00011459  00000+0  23421-3 0  9997
2 33504  82.4285 162.3772 0012439 117.9458 242.3052 15.45907958962567
CZ-2C R/B               
1 37731U 11030B   26177.65284068  .00001170  00000+0  15273-3 0  9997
2 37731  97.8657 132.8681 0052222 357.4614 175.7395 14.81492923806225
H-2A R/B                
1 38341U 12025E   26177.65629172  .00002542  00000+0  23015-3 0  9996
2 38341  98.4821 153.5824 0043062 317.3114  42.4762 14.95758244764502
SHIJIAN-16 (SJ-16)      
1 39358U 13057A   26177.62318047  .00001137  00000+0  11303-3 0  9990
2 39358  74.9730 338.8104 0016535 208.8778 151.1497 14.92620978687756
SL-4 R/B                
1 39679U 14021B   26177.46076758  .00009833  00000+0  20370-3 0  9995
2 39679  51.6029 165.3337 0090800 139.7641 221.0112 15.42126395673042
ALOS-2                  
1 39766U 14029A   26177.60776922  .00001296  00000+0  18043-3 0  9995
2 39766  97.9220 274.6369 0001583  88.2015 271.9378 14.79471388652978
YAOGAN-29               
1 41038U 15069A   26177.62332257  .00000397  00000+0  55384-4 0  9997
2 41038  98.0028 206.2708 0002127  38.1254 322.0110 14.83091538572022
ASTRO-H (HITOMI)        
1 41337U 16012A   26177.61581708  .00002649  00000+0  15096-3 0  9991
2 41337  31.0005  13.2933 0009699 347.5522  12.4876 15.10550453568715
HXMT (HUIYAN)           
1 42758U 17034A   26177.34318793  .00004694  00000+0  23174-3 0  9994
2 42758  43.0130 132.0541 0031996 205.3816 154.5462 15.18533597499059
SAOCOM 1A               
1 43641U 18076A   26177.65504435 -.00000049  00000+0  43594-6 0  9999
2 43641  97.8886   4.2660 0001544  79.8469 280.2918 14.82153237417504
H-2A R/B                
1 43682U 18084L   26177.64681108  .00020360  00000+0  42231-3 0  9996
2 43682  98.8571  58.6058 0022397   8.1824 351.9781 15.45508694422583
SAOCOM 1B               
1 46265U 20059A   26177.55119248  .00000328  00000+0  47741-4 0  9996
2 46265  97.8887   3.2587 0001553  89.4410 270.6981 14.82145397314877
CSS (TIANHE)            
1 48274U 21035A   26177.57375109  .00020720  00000+0  24073-3 0  9995
2 48274  41.4690 264.8628 0007978 156.9177 203.2022 15.61214347294633
COSMOS 2550             
1 48865U 21056A   26177.67478446  .00005237  00000+0  16476-3 0  9997
2 48865  67.1438  71.2066 0008416 267.9847  92.0344 15.33856556280173
CZ-2C R/B               
1 52794U 22058K   26177.00553739  .00040257  00000+0  43630-3 0  9995
2 52794  50.1846 117.6128 0031897 304.0762  55.7186 15.62450808227023
CZ-2C R/B               
1 54039U 22132E   26177.00067075  .00070428  00000+0  52173-3 0  9990
2 54039  97.2898 184.4233 0014293  56.3391 303.9234 15.72565857207337
GSLV R/B                
1 54149U 22138AN  26177.60809725  .00003206  00000+0  27257-3 0  9995
2 54149  87.3808 129.8203 0023980 112.3910 247.9867 14.97297422200229
XRISM                   
1 57800U 23137A   26177.62770661  .00004753  00000+0  26042-3 0  9999
2 57800  31.0027 298.4476 0007828  58.7511 301.3894 15.12542851154290
ACS3                    
1 59588U 24077B   26177.53402067  .00004974  00000+0  36073-2 0  9999
2 59588  97.1683  94.2429 0095186  57.1858 303.8432 13.94542288109340
CZ-8A R/B               
1 66004U 25231K   26177.76453914 -.00000018  00000+0  51914-4 0  9994
2 66004  50.0056 358.5698 0116491 257.7127 101.0725 14.30157298 36310
SZ-21 MODULE            
1 66515U 25246C   26177.58965000  .00043902  00000+0  26051-3 0  9992
2 66515  41.4719 248.7328 0005018  65.4550 294.6818 15.77194503 35226
